NORAD_CAT_ID,OBJECT_NAME,OBJECT_TYPE,EPOCH,MEAN_MOTION,ECCENTRICITY,INCLINATION,RA_OF_ASC_NODE,ARG_OF_PERICENTER,MEAN_ANOMALY,BSTAR,MEAN_MOTION_DOT,MEAN_MOTION_DDOT,TLE_LINE0,TLE_LINE1,TLE_LINE2,SEMIMAJOR_AXIS,PERIOD,APOGEE,PERIGEE,DECAYED
51144.0,STARLINK-3185,PAYLOAD,2023-08-01 02:24:53,15.08839566,0.0001305,53.2149,250.9698,87.8439,272.2703,8.5419e-05,1.072e-05,0.0,0 STARLINK-3185,1 51144U 22005AS  23213.10061869  .00001072  00000-0  85419-4 0  9997,2 51144  53.2149 250.9698 0001305  87.8439 272.2703 15.08839566 86196,6917.882,95.438,540.649,538.844,0.0
51144.0,STARLINK-3185,PAYLOAD,2023-08-02 08:37:12,15.08843046,0.0001201,53.2158,245.3188,91.235,268.878,9.2733e-05,1.188e-05,0.0,0 STARLINK-3185,1 51144U 22005AS  23214.35917654  .00001188  00000-0  92733-4 0  9992,2 51144  53.2158 245.3188 0001201  91.2350 268.8780 15.08843046 86389,6917.871,95.437,540.567,538.905,0.0
51144.0,STARLINK-3185,PAYLOAD,2023-08-03 13:14:09,15.08845776,0.0001292,53.2165,239.9674,83.8031,276.3108,0.00013352,1.838e-05,0.0,0 STARLINK-3185,1 51144U 22005AS  23215.55149419  .00001838  00000-0  13352-3 0  9992,2 51144  53.2165 239.9674 0001292  83.8031 276.3108 15.08845776 86569,6917.863,95.437,540.622,538.834,0.0
51144.0,STARLINK-3185,PAYLOAD,2023-08-04 01:57:14,15.08838352,0.0001173,53.2166,237.5873,105.9371,254.175,-1.86e-05,-5.84e-06,0.0,0 STARLINK-3185,1 51144U 22005AS  23216.08142323 -.00000584  00000-0 -18600-4 0  9999,2 51144  53.2166 237.5873 0001173 105.9371 254.1750 15.08838352 86644,6917.885,95.438,540.562,538.939,0.0
51144.0,STARLINK-3185,PAYLOAD,2023-08-05 06:34:11,15.0884313,0.0001199,53.2158,232.2358,85.2862,274.8267,8.17e-05,1.013e-05,0.0,0 STARLINK-3185,1 51144U 22005AS  23217.27374018  .00001013  00000-0  81700-4 0  9996,2 51144  53.2158 232.2358 0001199  85.2862 274.8267 15.08843130 86820,6917.871,95.437,540.565,538.906,0.0
51144.0,STARLINK-3185,PAYLOAD,2023-08-06 06:24:58,15.0883848,0.0001276,53.215,227.7752,98.4352,261.6784,9.7992e-05,1.272e-05,0.0,0 STARLINK-3185,1 51144U 22005AS  23218.26734187  .00001272  00000-0  97992-4 0  9990,2 51144  53.2150 227.7752 0001276  98.4352 261.6784 15.08838480 86971,6917.885,95.438,540.633,538.867,0.0
51144.0,STARLINK-3185,PAYLOAD,2023-08-07 07:51:09,15.08837568,0.0001307,53.2163,223.0178,89.5239,270.5903,9.5282e-06,-1.36e-06,0.0,0 STARLINK-3185,1 51144U 22005AS  23219.32718853 -.00000136  00000-0  95282-5 0  9990,2 51144  53.2163 223.0178 0001307  89.5239 270.5903 15.08837568 87133,6917.888,95.438,540.657,538.849,0.0
51144.0,STARLINK-3185,PAYLOAD,2023-08-08 09:17:18,15.08847768,0.0001231,53.2157,218.2593,88.8267,271.2866,0.00010716,1.418e-05,0.0,0 STARLINK-3185,1 51144U 22005AS  23220.38701934  .00001418  00000-0  10716-3 0  9990,2 51144  53.2157 218.2593 0001231  88.8267 271.2866 15.08847768 87298,6917.857,95.437,540.573,538.87,0.0
51144.0,STARLINK-3185,PAYLOAD,2023-08-08 17:14:14,15.08842526,0.0001238,53.2158,216.7726,88.0243,272.0891,6.5746e-05,7.59e-06,0.0,0 STARLINK-3185,1 51144U 22005AS  23220.71822299  .00000759  00000-0  65746-4 0  9996,2 51144  53.2158 216.7726 0001238  88.0243 272.0891 15.08842526 87343,6917.873,95.437,540.594,538.881,0.0
51144.0,STARLINK-3185,PAYLOAD,2023-08-09 17:05:02,15.08835124,0.000123,53.2158,212.3118,88.4734,271.6399,2.9434e-05,1.81e-06,0.0,0 STARLINK-3185,1 51144U 22005AS  23221.71182934  .00000181  00000-0  29434-4 0  9995,2 51144  53.2158 212.3118 0001230  88.4734 271.6399 15.08835124 87491,6917.895,95.438,540.611,538.909,0.0
51144.0,STARLINK-3185,PAYLOAD,2023-08-10 10:34:16,15.08841241,0.000127,53.2159,209.0405,89.9944,270.1194,6.7836e-06,-1.8e-06,0.0,0 STARLINK-3185,1 51144U 22005AS  23222.44046607 -.00000180  00000-0  67836-5 0  9991,2 51144  53.2159 209.0405 0001270  89.9944 270.1194 15.08841241 87604,6917.877,95.437,540.62,538.863,0.0
51144.0,STARLINK-3185,PAYLOAD,2023-08-12 02:18:54,15.08836685,0.0001413,53.2152,201.6066,98.3074,261.8079,6.5861e-05,7.6e-06,0.0,0 STARLINK-3185,1 51144U 22005AS  23224.09646882  .00000760  00000-0  65861-4 0  9993,2 51144  53.2152 201.6066 0001413  98.3074 261.8079 15.08836685 87857,6917.891,95.438,540.733,538.778,0.0
51144.0,STARLINK-3185,PAYLOAD,2023-08-12 15:02:00,15.08831565,0.0001626,53.2155,199.2283,85.2777,274.8401,1.9766e-05,2.6e-07,0.0,0 STARLINK-3185,1 51144U 22005AS  23224.62639603  .00000026  00000-0  19766-4 0  9993,2 51144  53.2155 199.2283 0001626  85.2777 274.8401 15.08831565 87938,6917.906,95.438,540.896,538.646,0.0
51144.0,STARLINK-3185,PAYLOAD,2023-08-14 09:57:24,15.08844714,0.0001298,53.2164,191.1996,86.8554,273.2587,0.00010078,1.317e-05,0.0,0 STARLINK-3185,1 51144U 22005AS  23226.41486937  .00001317  00000-0  10078-3 0  9992,2 51144  53.2164 191.1996 0001298  86.8554 273.2587 15.08844714 88204,6917.866,95.437,540.629,538.833,0.0
51144.0,STARLINK-3185,PAYLOAD,2023-08-15 01:51:16,15.08832684,0.000114,53.2167,188.2253,87.8454,272.2669,0.00011828,1.595e-05,0.0,0 STARLINK-3185,1 51144U 22005AS  23227.07727752  .00001595  00000-0  11828-3 0  9990,2 51144  53.2167 188.2253 0001140  87.8454 272.2669 15.08832684 88300,6917.903,95.438,540.556,538.979,0.0
51144.0,STARLINK-3185,PAYLOAD,2023-08-15 05:02:02,15.08842056,0.0001697,53.2169,187.6305,96.3654,263.7531,6.3198e-05,7.18e-06,0.0,0 STARLINK-3185,1 51144U 22005AS  23227.20975415  .00000718  00000-0  63198-4 0  9990,2 51144  53.2169 187.6305 0001697  96.3654 263.7531 15.08842056 88326,6917.874,95.437,540.913,538.565,0.0
51144.0,STARLINK-3185,PAYLOAD,2023-08-16 23:57:27,15.08842936,0.0001375,53.2171,179.6032,93.0063,267.1087,4.3746e-05,4.08e-06,0.0,0 STARLINK-3185,1 51144U 22005AS  23228.99823218  .00000408  00000-0  43746-4 0  9993,2 51144  53.2171 179.6032 0001375  93.0063 267.1087 15.08842936 88598,6917.871,95.437,540.688,538.785,0.0
51144.0,STARLINK-3185,PAYLOAD,2023-08-17 06:18:59,15.08850747,0.0001394,53.2167,178.412,89.4637,270.6515,9.6361e-05,1.246e-05,0.0,0 STARLINK-3185,1 51144U 22005AS  23229.26318497  .00001246  00000-0  96361-4 0  9994,2 51144  53.2167 178.4120 0001394  89.4637 270.6515 15.08850747 88634,6917.848,95.437,540.677,538.748,0.0
51144.0,STARLINK-3185,PAYLOAD,2023-08-18 02:59:00,15.08840694,0.0001539,53.2167,174.5461,95.6693,264.4474,-2.5874e-05,-7e-06,0.0,0 STARLINK-3185,1 51144U 22005AS  23230.12431353 -.00000700  00000-0 -25874-4 0  9995,2 51144  53.2167 174.5461 0001539  95.6693 264.4474 15.08840694 88760,6917.878,95.438,540.808,538.679,0.0
51144.0,STARLINK-3185,PAYLOAD,2023-08-19 06:00:33,15.08841403,0.0001443,53.2163,169.491,91.6639,268.4518,3.1904e-05,2.2e-06,0.0,0 STARLINK-3185,1 51144U 22005AS  23231.25039250  .00000220  00000-0  31904-4 0  9996,2 51144  53.2163 169.4910 0001443  91.6639 268.4518 15.08841403 88939,6917.876,95.437,540.739,538.743,0.0
51144.0,STARLINK-3185,PAYLOAD,2023-08-20 02:40:35,15.08834311,0.0001412,53.2176,165.6233,98.7664,261.3488,9.5691e-06,-1.36e-06,0.0,0 STARLINK-3185,1 51144U 22005AS  23232.11152101 -.00000136  00000-0  95691-5 0  9994,2 51144  53.2176 165.6233 0001412  98.7664 261.3488 15.08834311 89064,6917.898,95.438,540.74,538.786,0.0
51144.0,STARLINK-3185,PAYLOAD,2023-08-21 04:06:45,15.08846358,0.0001281,53.2178,160.8696,94.7284,265.3855,0.00014061,1.951e-05,0.0,0 STARLINK-3185,1 51144U 22005AS  23233.17135476  .00001951  00000-0  14061-3 0  9992,2 51144  53.2178 160.8696 0001281  94.7284 265.3855 15.08846358 89228,6917.861,95.437,540.612,538.84,0.0
51144.0,STARLINK-3185,PAYLOAD,2023-08-22 03:57:32,15.08841982,0.0001224,53.2164,156.4091,84.8486,275.2646,9.5477e-05,1.232e-05,0.0,0 STARLINK-3185,1 51144U 22005AS  23234.16496063  .00001232  00000-0  95477-4 0  9997,2 51144  53.2164 156.4091 0001224  84.8486 275.2646 15.08841982 89376,6917.874,95.437,540.586,538.893,0.0
51144.0,STARLINK-3185,PAYLOAD,2023-08-23 02:12:56,15.08841333,0.0001361,53.2162,152.2442,80.2655,279.8491,4.1503e-05,3.73e-06,0.0,0 STARLINK-3185,1 51144U 22005AS  23235.09232326  .00000373  00000-0  41503-4 0  9996,2 51144  53.2162 152.2442 0001361  80.2655 279.8491 15.08841333 89512,6917.876,95.437,540.683,538.8,0.0
51144.0,STARLINK-3185,PAYLOAD,2023-08-24 03:39:07,15.08844236,0.0001413,53.2162,147.4858,79.8109,280.3042,0.00016498,2.339e-05,0.0,0 STARLINK-3185,1 51144U 22005AS  23236.15216586  .00002339  00000-0  16498-3 0  9992,2 51144  53.2162 147.4858 0001413  79.8109 280.3042 15.08844236 88563,6917.867,95.437,540.71,538.755,0.0
51144.0,STARLINK-3185,PAYLOAD,2023-08-25 00:19:07,15.08849523,0.0001644,53.2169,143.6211,72.4324,287.6848,0.00021413,3.122e-05,0.0,0 STARLINK-3185,1 51144U 22005AS  23237.01328375  .00003122  00000-0  21413-3 0  9992,2 51144  53.2169 143.6211 0001644  72.4324 287.6848 15.08849523 88697,6917.851,95.437,540.854,538.579,0.0
51144.0,STARLINK-3185,PAYLOAD,2023-08-25 20:59:08,15.08845949,0.0001445,53.2168,139.7547,84.6073,275.5084,6.1752e-05,6.95e-06,0.0,0 STARLINK-3185,1 51144U 22005AS  23237.87440217  .00000695  00000-0  61752-4 0  9999,2 51144  53.2168 139.7547 0001445  84.6073 275.5084 15.08845949 88820,6917.862,95.437,540.727,538.728,0.0
51144.0,STARLINK-3185,PAYLOAD,2023-08-26 00:09:54,15.08846066,0.0001405,53.2164,139.1608,81.6255,278.4897,5.1368e-05,5.3e-06,0.0,0 STARLINK-3185,1 51144U 22005AS  23238.00688149  .00000530  00000-0  51368-4 0  9993,2 51144  53.2164 139.1608 0001405  81.6255 278.4897 15.08846066 89953,6917.862,95.437,540.699,538.755,0.0
51144.0,STARLINK-3185,PAYLOAD,2023-08-26 03:20:40,15.08847961,0.000137,53.2171,138.5657,83.679,276.4358,5.8273e-05,6.4e-06,0.0,0 STARLINK-3185,1 51144U 22005AS  23238.13936005  .00000640  00000-0  58273-4 0  9998,2 51144  53.2171 138.5657 0001370  83.6790 276.4358 15.08847961 88869,6917.856,95.437,540.669,538.773,0.0
51144.0,STARLINK-3185,PAYLOAD,2023-08-26 17:39:09,15.08837418,0.0001432,53.2168,135.8881,77.2971,282.8182,4.2062e-05,3.81e-06,0.0,0 STARLINK-3185,1 51144U 22005AS  23238.73552606  .00000381  00000-0  42062-4 0  9996,2 51144  53.2168 135.8881 0001432  77.2971 282.8182 15.08837418 90060,6917.888,95.438,540.744,538.763,0.0
